[{"OBJECT_NAME":"STARLINK-3536","OBJECT_ID":"2022-022AN","EPOCH":"2026-03-09T00:54:05.441472","MEAN_MOTION":15.08838759,"ECCENTRICITY":0.00012302,"INCLINATION":53.2188,"RA_OF_ASC_NODE":2.0467,"ARG_OF_PERICENTER":97.5151,"MEAN_ANOMALY":262.5981,"EPHEMERIS_TYPE":0,"CLASSIFICATION_TYPE":"U","NORAD_CAT_ID":51888,"ELEMENT_SET_NO":999,"REV_AT_EPOCH":22315,"BSTAR":2.0456228e-5,"MEAN_MOTION_DOT":3.8e-7,"MEAN_MOTION_DDOT":0},{"OBJECT_NAME":"PEGASUS DEB","OBJECT_ID":"1994-029AFM","EPOCH":"2026-03-08T23:15:51.953184","MEAN_MOTION":14.33874448,"ECCENTRICITY":0.03356187,"INCLINATION":81.3387,"RA_OF_ASC_NODE":74.0014,"ARG_OF_PERICENTER":52.9091,"MEAN_ANOMALY":310.2272,"EPHEMERIS_TYPE":0,"CLASSIFICATION_TYPE":"U","NORAD_CAT_ID":39914,"ELEMENT_SET_NO":999,"REV_AT_EPOCH":60479,"BSTAR":0.002295222,"MEAN_MOTION_DOT":0.00012116,"MEAN_MOTION_DDOT":0}]
